NORAD_CAT_ID,OBJECT_NAME,OBJECT_TYPE,EPOCH,MEAN_MOTION,ECCENTRICITY,INCLINATION,RA_OF_ASC_NODE,ARG_OF_PERICENTER,MEAN_ANOMALY,BSTAR,MEAN_MOTION_DOT,MEAN_MOTION_DDOT,TLE_LINE0,TLE_LINE1,TLE_LINE2,SEMIMAJOR_AXIS,PERIOD,APOGEE,PERIGEE,DECAYED
53439.0,STARLINK-4519,PAYLOAD,2023-08-17 16:31:43,15.08851755,8.7e-05,53.2183,341.271,89.9594,270.1498,0.0001118,1.493e-05,0.0,0 STARLINK-4519,1 53439U 22097BD  23229.68869582  .00001493  00000-0  11180-3 0  9995,2 53439  53.2183 341.2710 0000870  89.9594 270.1498 15.08851755 57159,6917.844,95.437,540.311,539.108,0.0
53439.0,STARLINK-4519,PAYLOAD,2023-08-18 00:28:39,15.08834227,0.0001086,53.2207,339.7865,106.5673,253.5438,0.00015197,2.131e-05,0.0,0 STARLINK-4519,1 53439U 22097BD  23230.01990484  .00002131  00000-0  15197-3 0  9992,2 53439  53.2207 339.7865 0001086 106.5673 253.5438 15.08834227 57203,6917.898,95.438,540.514,539.012,0.0
53439.0,STARLINK-4519,PAYLOAD,2023-08-19 13:02:31,15.08848254,0.0001069,53.217,332.9454,96.3853,263.7261,0.00012258,1.664e-05,0.0,0 STARLINK-4519,1 53439U 22097BD  23231.54341974  .00001664  00000-0  12258-3 0  9990,2 53439  53.2170 332.9454 0001069  96.3853 263.7261 15.08848254 57435,6917.855,95.437,540.46,538.981,0.0
53439.0,STARLINK-4519,PAYLOAD,2023-08-20 12:53:19,15.08838991,6.72e-05,53.2167,328.4869,68.1109,291.9954,7.3628e-05,8.84e-06,0.0,0 STARLINK-4519,1 53439U 22097BD  23232.53702575  .00000884  00000-0  73628-4 0  9990,2 53439  53.2167 328.4869 0000672  68.1109 291.9954 15.08838991 57586,6917.883,95.438,540.213,539.284,0.0
53439.0,STARLINK-4519,PAYLOAD,2023-08-22 10:59:30,15.08839544,0.0001219,53.2186,319.864,87.5942,272.519,9.8913e-05,1.287e-05,0.0,0 STARLINK-4519,1 53439U 22097BD  23234.45798712  .00001287  00000-0  98913-4 0  9993,2 53439  53.2186 319.8640 0001219  87.5942 272.5190 15.08839544 57870,6917.882,95.438,540.59,538.903,0.0
53439.0,STARLINK-4519,PAYLOAD,2023-08-23 12:25:40,15.08839401,0.0001311,53.219,315.1063,101.0926,259.0214,5.9561e-05,6.6e-06,0.0,0 STARLINK-4519,1 53439U 22097BD  23235.51782895  .00000660  00000-0  59561-4 0  9996,2 53439  53.2190 315.1063 0001311 101.0926 259.0214 15.08839401 58038,6917.882,95.438,540.654,538.84,0.0
53439.0,STARLINK-4519,PAYLOAD,2023-08-24 10:41:04,15.08835636,0.0001339,53.2187,310.9429,100.7226,259.3917,1.3619e-05,-7.1e-07,0.0,0 STARLINK-4519,1 53439U 22097BD  23236.44519401 -.00000071  00000-0  13619-4 0  9991,2 53439  53.2187 310.9429 0001339 100.7226 259.3917 15.08835636 58660,6917.894,95.438,540.685,538.832,0.0
53439.0,STARLINK-4519,PAYLOAD,2023-08-25 12:07:14,15.08841771,0.0001249,53.218,306.1847,94.9194,265.194,6.5637e-05,7.57e-06,0.0,0 STARLINK-4519,1 53439U 22097BD  23237.50503122  .00000757  00000-0  65637-4 0  9999,2 53439  53.2180 306.1847 0001249  94.9194 265.1940 15.08841771 58828,6917.875,95.437,540.604,538.876,0.0
53439.0,STARLINK-4519,PAYLOAD,2023-08-26 11:58:01,15.08840334,0.0001236,53.2177,301.7237,86.8503,273.2631,8.8424e-05,1.12e-05,0.0,0 STARLINK-4519,1 53439U 22097BD  23238.49863383  .00001120  00000-0  88424-4 0  9990,2 53439  53.2177 301.7237 0001236  86.8503 273.2631 15.08840334 58975,6917.879,95.438,540.599,538.889,0.0
53439.0,STARLINK-4519,PAYLOAD,2023-08-27 03:51:53,15.08835504,0.0001377,53.2177,298.75,87.1121,273.0028,9.2639e-06,-1.4e-06,0.0,0 STARLINK-4519,1 53439U 22097BD  23239.16104129 -.00000140  00000-0  92639-5 0  9997,2 53439  53.2177 298.7500 0001377  87.1121 273.0028 15.08835504 58587,6917.894,95.438,540.712,538.807,0.0
53439.0,STARLINK-4519,PAYLOAD,2023-08-27 08:38:03,15.08836599,0.0001324,53.2177,297.858,83.6409,276.4734,-1.7085e-06,-3.15e-06,0.0,0 STARLINK-4519,1 53439U 22097BD  23239.35976151 -.00000315  00000-0 -17085-5 0  9997,2 53439  53.2177 297.8580 0001324  83.6409 276.4734 15.08836599 59102,6917.891,95.438,540.672,538.84,0.0
53439.0,STARLINK-4519,PAYLOAD,2023-08-27 10:13:26,15.08837697,0.0001349,53.2179,297.5607,82.4783,277.6363,6.2231e-06,-1.89e-06,0.0,0 STARLINK-4519,1 53439U 22097BD  23239.42600068 -.00000189  00000-0  62231-5 0  9997,2 53439  53.2179 297.5607 0001349  82.4783 277.6363 15.08837697 59112,6917.887,95.438,540.686,538.819,0.0
53439.0,STARLINK-4519,PAYLOAD,2023-08-28 10:04:12,15.08849766,0.0001301,53.217,293.0994,83.7388,276.3752,0.00011158,1.489e-05,0.0,0 STARLINK-4519,1 53439U 22097BD  23240.41958814  .00001489  00000-0  11158-3 0  9996,2 53439  53.2170 293.0994 0001301  83.7388 276.3752 15.08849766 58775,6917.851,95.437,540.616,538.816,0.0
53439.0,STARLINK-4519,PAYLOAD,2023-08-28 21:11:54,15.08843532,0.0001255,53.2169,291.0181,82.3591,277.7544,9.7568e-05,1.265e-05,0.0,0 STARLINK-4519,1 53439U 22097BD  23240.88327063  .00001265  00000-0  97568-4 0  9995,2 53439  53.2169 291.0181 0001255  82.3591 277.7544 15.08843532 59330,6917.87,95.437,540.603,538.866,0.0
53439.0,STARLINK-4519,PAYLOAD,2023-08-29 09:55:00,15.08837583,0.0001439,53.218,288.6397,90.8444,269.2713,3.2095e-05,2.23e-06,0.0,0 STARLINK-4519,1 53439U 22097BD  23241.41319725  .00000223  00000-0  32095-4 0  9998,2 53439  53.2180 288.6397 0001439  90.8444 269.2713 15.08837583 58926,6917.888,95.438,540.748,538.757,0.0
53439.0,STARLINK-4519,PAYLOAD,2023-08-30 19:18:06,15.08842046,0.0001361,53.2176,282.3952,92.8169,267.2978,-6.503e-05,-1.323e-05,0.0,0 STARLINK-4519,1 53439U 22097BD  23242.80423733 -.00001323  00000-0 -65030-4 0  9996,2 53439  53.2176 282.3952 0001361  92.8169 267.2978 15.08842046 59628,6917.874,95.437,540.681,538.798,0.0
53439.0,STARLINK-4519,PAYLOAD,2023-08-31 01:39:38,15.08834577,0.000131,53.2171,281.2051,87.5649,272.5493,4.6446e-05,4.51e-06,0.0,0 STARLINK-4519,1 53439U 22097BD  23243.06919914  .00000451  00000-0  46446-4 0  9995,2 53439  53.2171 281.2051 0001310  87.5649 272.5493 15.08834577 59170,6917.897,95.438,540.668,538.856,0.0
53439.0,STARLINK-4519,PAYLOAD,2023-09-01 11:02:44,15.08838184,0.0001268,53.2168,274.9605,88.0403,272.0734,6.8757e-05,8.07e-06,0.0,0 STARLINK-4519,1 53439U 22097BD  23244.46024037  .00000807  00000-0  68757-4 0  9997,2 53439  53.2168 274.9605 0001268  88.0403 272.0734 15.08838184 59380,6917.886,95.438,540.628,538.874,0.0
53439.0,STARLINK-4519,PAYLOAD,2023-09-01 18:59:40,15.08840136,0.000127,53.2168,273.4737,87.6017,272.5121,7.2265e-05,8.62e-06,0.0,0 STARLINK-4519,1 53439U 22097BD  23244.79143928  .00000862  00000-0  72265-4 0  9994,2 53439  53.2168 273.4737 0001270  87.6017 272.5121 15.08840136 59924,6917.88,95.438,540.624,538.866,0.0
53439.0,STARLINK-4519,PAYLOAD,2023-09-02 01:21:12,15.0883988,0.0001371,53.2155,272.2838,85.9778,274.137,6.0779e-05,6.8e-06,0.0,0 STARLINK-4519,1 53439U 22097BD  23245.05640016  .00000680  00000-0  60779-4 0  9999,2 53439  53.2155 272.2838 0001371  85.9778 274.1370 15.08839880 59968,6917.881,95.438,540.694,538.797,0.0
53439.0,STARLINK-4519,PAYLOAD,2023-09-02 18:50:27,15.08841439,0.0001386,53.2156,269.013,89.3921,270.723,5.9644e-05,6.61e-06,0.0,0 STARLINK-4519,1 53439U 22097BD  23245.78503968  .00000661  00000-0  59644-4 0  9991,2 53439  53.2156 269.0130 0001386  89.3921 270.7230 15.08841439 60076,6917.876,95.437,540.7,538.782,0.0
53439.0,STARLINK-4519,PAYLOAD,2023-09-03 01:12:00,15.08837774,0.0001445,53.2154,267.8235,89.6992,270.4166,2.2457e-05,6.9e-07,0.0,0 STARLINK-4519,1 53439U 22097BD  23246.05000309  .00000069  00000-0  22457-4 0  9997,2 53439  53.2154 267.8235 0001445  89.6992 270.4166 15.08837774 59624,6917.887,95.438,540.752,538.753,0.0
53439.0,STARLINK-4519,PAYLOAD,2023-09-03 09:08:55,15.08842188,0.0001405,53.2162,266.337,89.6984,270.4169,5.9881e-05,6.65e-06,0.0,0 STARLINK-4519,1 53439U 22097BD  23246.38119942  .00000665  00000-0  59881-4 0  9990,2 53439  53.2162 266.3370 0001405  89.6984 270.4169 15.08842188 60163,6917.874,95.437,540.711,538.767,0.0
53439.0,STARLINK-4519,PAYLOAD,2023-09-04 10:35:06,15.0883515,0.0001464,53.217,261.579,86.9237,273.1923,-8.8133e-06,-4.28e-06,0.0,0 STARLINK-4519,1 53439U 22097BD  23247.44104830 -.00000428  00000-0 -88133-5 0  9990,2 53439  53.2170 261.5790 0001464  86.9237 273.1923 15.08835150 59832,6917.895,95.438,540.773,538.747,0.0
53439.0,STARLINK-4519,PAYLOAD,2023-09-05 00:53:34,15.08839077,0.0001419,53.2162,258.9015,89.9154,270.2001,6.8857e-05,8.08e-06,0.0,0 STARLINK-4519,1 53439U 22097BD  23248.03720383  .00000808  00000-0  68857-4 0  9993,2 53439  53.2162 258.9015 0001419  89.9154 270.2001 15.08839077 59921,6917.883,95.438,540.73,538.767,0.0
53439.0,STARLINK-4519,PAYLOAD,2023-09-06 07:05:53,15.08840309,0.0001422,53.2164,253.2518,86.9729,273.1426,0.00011916,1.609e-05,0.0,0 STARLINK-4519,1 53439U 22097BD  23249.29576196  .00001609  00000-0  11916-3 0  9996,2 53439  53.2164 253.2518 0001422  86.9729 273.1426 15.08840309 60114,6917.879,95.438,540.728,538.761,0.0
53439.0,STARLINK-4519,PAYLOAD,2023-09-07 00:35:08,15.08837789,0.0001457,53.2163,249.9823,85.9269,274.189,3.2601e-05,2.31e-06,0.0,0 STARLINK-4519,1 53439U 22097BD  23250.02440651  .00000231  00000-0  32601-4 0  9990,2 53439  53.2163 249.9823 0001457  85.9269 274.1890 15.08837789 60226,6917.887,95.438,540.76,538.744,0.0
53439.0,STARLINK-4519,PAYLOAD,2023-09-07 10:07:27,15.08843204,0.0001411,53.2162,248.1968,90.743,269.3724,1.3362e-05,-7.5e-07,0.0,0 STARLINK-4519,1 53439U 22097BD  23250.42184293 -.00000075  00000-0  13362-4 0  9991,2 53439  53.2162 248.1968 0001411  90.7430 269.3724 15.08843204 60771,6917.871,95.437,540.712,538.759,0.0
53439.0,STARLINK-4519,PAYLOAD,2023-09-08 05:12:05,15.08799231,0.000165,53.2162,244.6273,87.7962,272.3219,0.00053065,8.158e-05,0.0,0 STARLINK-4519,1 53439U 22097BD  23251.21673471  .00008158  00000-0  53065-3 0  9992,2 53439  53.2162 244.6273 0001650  87.7962 272.3219 15.08799231 60405,6918.005,95.44,541.011,538.729,0.0
53439.0,STARLINK-4519,PAYLOAD,2023-09-08 16:19:46,15.08842001,0.0001282,53.2164,242.5465,87.683,272.4309,-3.8641e-06,-3.49e-06,0.0,0 STARLINK-4519,1 53439U 22097BD  23251.68040492 -.00000349  00000-0 -38641-5 0  9995,2 53439  53.2164 242.5465 0001282  87.6830 272.4309 15.08842001 60473,6917.874,95.437,540.626,538.852,0.0
